[
  {
    "OBJECT_NAME": "STARLINK-1011",
    "OBJECT_ID": "19074E",
    "EPOCH": "2025-11-11T08:00:03.000384",
    "MEAN_MOTION": 15.91805325,
    "ECCENTRICITY": 0.0004872,
    "INCLINATION": 53.045,
    "RA_OF_ASC_NODE": 334.0258,
    "ARG_OF_PERICENTER": 12.6967,
    "MEAN_ANOMALY": 81.3407,
    "EPHEMERIS_TYPE": 0,
    "CLASSIFICATION_TYPE": "U",
    "NORAD_CAT_ID": 44717,
    "ELEMENT_SET_NO": 999,
    "REV_AT_EPOCH": 592,
    "BSTAR": 0.00099615,
    "MEAN_MOTION_DOT": 0.00332157,
    "MEAN_MOTION_DDOT": 5.2745e-05,
    "TLE_LINE1": "1 44717U 19074E   25315.33336806  .00332157  52745-4  99615-3 0  9993",
    "TLE_LINE2": "2 44717  53.0450 334.0258 0004872  12.6967  81.3407 15.91805325  5927",
    "COMMENT": "Grouped by shell and plane from TLE"
  },
  {
    "OBJECT_NAME": "STARLINK-31771",
    "OBJECT_ID": "24080V",
    "EPOCH": "2025-11-11T08:00:03.000384",
    "MEAN_MOTION": 15.61016142,
    "ECCENTRICITY": 0.002302,
    "INCLINATION": 42.9894,
    "RA_OF_ASC_NODE": 337.5155,
    "ARG_OF_PERICENTER": 91.5366,
    "MEAN_ANOMALY": 221.8303,
    "EPHEMERIS_TYPE": 0,
    "CLASSIFICATION_TYPE": "U",
    "NORAD_CAT_ID": 59620,
    "ELEMENT_SET_NO": 999,
    "REV_AT_EPOCH": 592,
    "BSTAR": 0.012876000000000002,
    "MEAN_MOTION_DOT": 0.01255228,
    "MEAN_MOTION_DDOT": 0.0,
    "TLE_LINE1": "1 59620U 24080V   25315.33336806  .01255228  00000+0  12876-1 0  9993",
    "TLE_LINE2": "2 59620  42.9894 337.5155 0023020  91.5366 221.8303 15.61016142  5928",
    "COMMENT": "Grouped by shell and plane from TLE"
  },
  {
    "OBJECT_NAME": "STARLINK-11080 [DTC]",
    "OBJECT_ID": "24152H",
    "EPOCH": "2025-11-11T07:29:52.622304",
    "MEAN_MOTION": 15.69705707,
    "ECCENTRICITY": 0.0001225,
    "INCLINATION": 53.1599,
    "RA_OF_ASC_NODE": 339.7349,
    "ARG_OF_PERICENTER": 97.1755,
    "MEAN_ANOMALY": 262.9402,
    "EPHEMERIS_TYPE": 0,
    "CLASSIFICATION_TYPE": "U",
    "NORAD_CAT_ID": 60727,
    "ELEMENT_SET_NO": 999,
    "REV_AT_EPOCH": 7037,
    "BSTAR": 5.1921e-05,
    "MEAN_MOTION_DOT": 5.705e-05,
    "MEAN_MOTION_DDOT": 0.0,
    "TLE_LINE1": "1 60727U 24152H   25315.31241461  .00005705  00000+0  51921-4 0  9992",
    "TLE_LINE2": "2 60727  53.1599 339.7349 0001225  97.1755 262.9402 15.69705707 70377",
    "COMMENT": "Grouped by shell and plane from TLE"
  },
  {
    "OBJECT_NAME": "STARLINK-11249 [DTC]",
    "OBJECT_ID": "24152J",
    "EPOCH": "2025-11-11T07:22:48.216000",
    "MEAN_MOTION": 15.69704875,
    "ECCENTRICITY": 0.0001373,
    "INCLINATION": 53.1594,
    "RA_OF_ASC_NODE": 339.7041,
    "ARG_OF_PERICENTER": 81.895,
    "MEAN_ANOMALY": 278.2224,
    "EPHEMERIS_TYPE": 0,
    "CLASSIFICATION_TYPE": "U",
    "NORAD_CAT_ID": 60728,
    "ELEMENT_SET_NO": 999,
    "REV_AT_EPOCH": 7024,
    "BSTAR": 3.321e-05,
    "MEAN_MOTION_DOT": 3.435e-05,
    "MEAN_MOTION_DDOT": 0.0,
    "TLE_LINE1": "1 60728U 24152J   25315.30750250  .00003435  00000+0  33210-4 0  9992",
    "TLE_LINE2": "2 60728  53.1594 339.7041 0001373  81.8950 278.2224 15.69704875 70246",
    "COMMENT": "Grouped by shell and plane from TLE"
  },
  {
    "OBJECT_NAME": "STARLINK-11146 [DTC]",
    "OBJECT_ID": "24152K",
    "EPOCH": "2025-11-11T07:15:44.557920",
    "MEAN_MOTION": 15.69698923,
    "ECCENTRICITY": 0.0001211,
    "INCLINATION": 53.1585,
    "RA_OF_ASC_NODE": 339.6585,
    "ARG_OF_PERICENTER": 83.1455,
    "MEAN_ANOMALY": 276.97,
    "EPHEMERIS_TYPE": 0,
    "CLASSIFICATION_TYPE": "U",
    "NORAD_CAT_ID": 60729,
    "ELEMENT_SET_NO": 999,
    "REV_AT_EPOCH": 7037,
    "BSTAR": 3.6753000000000005e-05,
    "MEAN_MOTION_DOT": 3.864e-05,
    "MEAN_MOTION_DDOT": 0.0,
    "TLE_LINE1": "1 60729U 24152K   25315.30259905  .00003864  00000+0  36753-4 0  9995",
    "TLE_LINE2": "2 60729  53.1585 339.6585 0001211  83.1455 276.9700 15.69698923 70379",
    "COMMENT": "Grouped by shell and plane from TLE"
  },
  {
    "OBJECT_NAME": "STARLINK-11255 [DTC]",
    "OBJECT_ID": "24152L",
    "EPOCH": "2025-11-11T07:08:41.032032",
    "MEAN_MOTION": 15.69707543,
    "ECCENTRICITY": 0.0001386,
    "INCLINATION": 53.1589,
    "RA_OF_ASC_NODE": 339.6388,
    "ARG_OF_PERICENTER": 74.4717,
    "MEAN_ANOMALY": 285.6454,
    "EPHEMERIS_TYPE": 0,
    "CLASSIFICATION_TYPE": "U",
    "NORAD_CAT_ID": 60730,
    "ELEMENT_SET_NO": 999,
    "REV_AT_EPOCH": 7025,
    "BSTAR": 4.7584000000000004e-05,
    "MEAN_MOTION_DOT": 5.179e-05,
    "MEAN_MOTION_DDOT": 0.0,
    "TLE_LINE1": "1 60730U 24152L   25315.29769713  .00005179  00000+0  47584-4 0  9993",
    "TLE_LINE2": "2 60730  53.1589 339.6388 0001386  74.4717 285.6454 15.69707543 70252",
    "COMMENT": "Grouped by shell and plane from TLE"
  },
  {
    "OBJECT_NAME": "STARLINK-11254 [DTC]",
    "OBJECT_ID": "24152M",
    "EPOCH": "2025-11-11T07:01:37.025760",
    "MEAN_MOTION": 15.69698111,
    "ECCENTRICITY": 0.0001359,
    "INCLINATION": 53.1595,
    "RA_OF_ASC_NODE": 339.6055,
    "ARG_OF_PERICENTER": 82.6496,
    "MEAN_ANOMALY": 277.4677,
    "EPHEMERIS_TYPE": 0,
    "CLASSIFICATION_TYPE": "U",
    "NORAD_CAT_ID": 60731,
    "ELEMENT_SET_NO": 999,
    "REV_AT_EPOCH": 7025,
    "BSTAR": 3.3956e-05,
    "MEAN_MOTION_DOT": 3.525e-05,
    "MEAN_MOTION_DDOT": 0.0,
    "TLE_LINE1": "1 60731U 24152M   25315.29278965  .00003525  00000+0  33956-4 0  9999",
    "TLE_LINE2": "2 60731  53.1595 339.6055 0001359  82.6496 277.4677 15.69698111 70252",
    "COMMENT": "Grouped by shell and plane from TLE"
  },
  {
    "OBJECT_NAME": "STARLINK-11266 [DTC]",
    "OBJECT_ID": "24152N",
    "EPOCH": "2025-11-11T06:54:32.972832",
    "MEAN_MOTION": 15.69702188,
    "ECCENTRICITY": 0.0001578,
    "INCLINATION": 53.1606,
    "RA_OF_ASC_NODE": 339.5593,
    "ARG_OF_PERICENTER": 80.723,
    "MEAN_ANOMALY": 279.3967,
    "EPHEMERIS_TYPE": 0,
    "CLASSIFICATION_TYPE": "U",
    "NORAD_CAT_ID": 60732,
    "ELEMENT_SET_NO": 999,
    "REV_AT_EPOCH": 7024,
    "BSTAR": 2.6922000000000004e-05,
    "MEAN_MOTION_DOT": 2.672e-05,
    "MEAN_MOTION_DDOT": 0.0,
    "TLE_LINE1": "1 60732U 24152N   25315.28788163  .00002672  00000+0  26922-4 0  9992",
    "TLE_LINE2": "2 60732  53.1606 339.5593 0001578  80.7230 279.3967 15.69702188 70242",
    "COMMENT": "Grouped by shell and plane from TLE"
  }
]